[{"OBJECT_NAME":"STARLINK-31320","OBJECT_ID":"2024-020L","EPOCH":"2026-03-09T23:10:09.930144","MEAN_MOTION":15.30201396,"ECCENTRICITY":0.00011007,"INCLINATION":53.1614,"RA_OF_ASC_NODE":321.1147,"ARG_OF_PERICENTER":86.7271,"MEAN_ANOMALY":273.3856,"EPHEMERIS_TYPE":0,"CLASSIFICATION_TYPE":"U","NORAD_CAT_ID":58886,"ELEMENT_SET_NO":999,"REV_AT_EPOCH":11811,"BSTAR":0.00026015303,"MEAN_MOTION_DOT":7.354e-5,"MEAN_MOTION_DDOT":0},{"OBJECT_NAME":"SCS-01 J","OBJECT_ID":"2025-100J","EPOCH":"2026-03-09T22:31:25.904064","MEAN_MOTION":15.31338011,"ECCENTRICITY":0.00063909,"INCLINATION":97.3693,"RA_OF_ASC_NODE":145.4824,"ARG_OF_PERICENTER":272.025,"MEAN_ANOMALY":88.026,"EPHEMERIS_TYPE":0,"CLASSIFICATION_TYPE":"U","NORAD_CAT_ID":63990,"ELEMENT_SET_NO":999,"REV_AT_EPOCH":4563,"BSTAR":0.0011832888,"MEAN_MOTION_DOT":0.00035886,"MEAN_MOTION_DDOT":0}]
